[{"OBJECT_NAME":"STARLINK-5162","OBJECT_ID":"2022-141AD","EPOCH":"2026-03-09T02:27:35.460000","MEAN_MOTION":15.08852,"ECCENTRICITY":0.0001526,"INCLINATION":53.2197,"RA_OF_ASC_NODE":7.1175,"ARG_OF_PERICENTER":85.3398,"MEAN_ANOMALY":274.7768,"EPHEMERIS_TYPE":0,"CLASSIFICATION_TYPE":"U","NORAD_CAT_ID":54184,"ELEMENT_SET_NO":999,"REV_AT_EPOCH":18576,"BSTAR":6.1083839e-5,"MEAN_MOTION_DOT":6.85e-6,"MEAN_MOTION_DDOT":0},{"OBJECT_NAME":"DELTA 1 DEB","OBJECT_ID":"1977-065GH","EPOCH":"2026-03-09T01:33:10.257120","MEAN_MOTION":14.31068962,"ECCENTRICITY":0.03714501,"INCLINATION":28.6431,"RA_OF_ASC_NODE":356.7801,"ARG_OF_PERICENTER":189.8856,"MEAN_ANOMALY":169.4241,"EPHEMERIS_TYPE":0,"CLASSIFICATION_TYPE":"U","NORAD_CAT_ID":27729,"ELEMENT_SET_NO":999,"REV_AT_EPOCH":68774,"BSTAR":0.0010478999,"MEAN_MOTION_DOT":6.203e-5,"MEAN_MOTION_DDOT":0}]
